full_name,epoch_mjd,a,e,i,om,w,ma,per_y
"   588 Achilles (1906 TG)",57400,5.205918324800839,.1470424681017484,10.31518181923982,316.5629881240458,133.5794630628248,138.597022350481,11.8782983017795
"   617 Patroclus (1906 VY)",57400,5.217631288161847,.1387283693782574,22.0476102678508,44.35882276907897,308.5017633242159,103.7387700621183,11.918408891238
"   624 Hektor (1907 XM)",57400,5.252597071273332,.02444697441922712,18.16691046968159,342.7963428240038,183.5753669708357,72.22810363752731,12.0384156201171
"   659 Nestor (1908 CS)",57400,5.18114451604008,.1165210569644986,4.523067045741381,350.8662011008454,341.6551863913062,242.2082206109467,11.7936099811553
"   884 Priamus (1917 CQ)",57400,5.182339859960497,.1214295709120864,8.913538311935351,301.5581665969507,335.7364465075648,190.6056871967643,11.7976915792523
"   911 Agamemnon (1919 FD)",57400,5.27351264478161,.06600130492544588,21.76253377740172,338.0217542204779,81.56435899865463,170.1766483363689,12.1103916877851
"  1143 Odysseus (1930 BH)",57400,5.248880889707172,.0897484411983754,3.137894019084074,221.2921196521012,236.9460060136374,117.812464972011,12.0256422175813
"  1172 Aneas (1930 UA)",57400,5.217849631843992,.1035007086804051,16.66461666076684,247.3296162726202,51.32325533356041,171.6426770621016,11.9191570285718
"  1173 Anchises (1930 UB)",57400,5.300320790292782,.1368513232196046,6.91626518057681,283.9019466573918,40.91054382718077,119.2906330790515,12.2028545539841
"  1208 Troilus (1931 YA)",57400,5.250215739190002,.09192059049087513,33.541704786132,48.55272961500331,296.685008588676,122.8558063287432,12.0302298934593
"  1404 Ajax (1936 QW)",57400,5.303753897631469,.112699575836639,18.0036960821896,332.9751697685633,60.09943689036383,182.0623454312673,12.2147124662493
"  1437 Diomedes (1937 PB)",57400,5.193049785043887,.04442335612683939,20.49105899320904,315.7918334044747,131.6152453962068,167.1413349660696,11.8342824786825
"  1583 Antilochus (1950 SA)",57400,5.127350018914155,.05182044238655489,28.52089602514834,221.3918000517266,188.0770657437287,188.1743490928902,11.61041252229
"  1647 Menelaus (1957 MK)",57400,5.215563330957469,.02251937544115117,5.649152922161054,240.3185588618198,299.0979538698495,34.68601951200294,11.9113239759143
"  1749 Telamon (1949 SB)",57400,5.148874002183155,.107413644835663,6.093644458128908,340.9251017856092,113.284838536694,121.7879318191036,11.683597814557
"  1867 Deiphobus (1971 EA)",57400,5.128583682105124,.04316567646757889,26.91111363663846,283.7030323383643,359.8571203457118,178.2962015662142,11.6146030495716
"  1868 Thersites (2008 P-L)",57400,5.320157479156499,.1086882219345059,16.75360898173476,197.8413423767825,169.6920235712426,213.1403927748846,12.2714232071698
"  1869 Philoctetes (4596 P-L)",57400,5.229815119254672,.06595442318449789,3.972786699461332,43.99073290720332,321.1377266017512,198.0358131252881,11.9601797481306
"  1870 Glaukos (1971 FE)",57400,5.248173983240662,.03185532744577112,6.575959131996174,176.3026160476852,131.3954716952364,148.7212759563013,12.0232129231671
"  1871 Astyanax (1971 FF)",57400,5.252965498918003,.03247501485168,8.597693946857966,145.7760229622882,164.0579337574042,119.6331670871018,12.0396822400842
"  1872 Helenos (1971 FG)",57400,5.318258662964396,.04762274202508963,14.64125942827879,188.7922128668845,116.3276432452911,162.4963186197572,12.2648541071152
"  1873 Agenor (1971 FH)",57400,5.236512325491317,.09223657719812291,21.87883471014829,197.9201389935882,356.5976298334971,255.1153855108878,11.9831610849524
"  2146 Stentor (1976 UQ)",57400,5.194699202270889,.1010376722868825,39.25873559810324,131.3248416679906,273.6493734582608,171.2416457262803,11.8399211361407
"  2148 Epeios (1976 UW)",57400,5.214137881803062,.05675032533289927,9.148881170302269,176.5953949118262,232.2231954366823,176.5548894076958,11.9064411400323
"  2207 Antenor (1977 QH1)",57400,5.13860764630466,.01685850883823956,6.808134139129044,159.1367175564617,298.4008487418533,11.99346374039962,11.6486712960567
"  2223 Sarpedon (1977 TL3)",57400,5.230595661111966,.01521050244339746,15.95949543088193,220.897129545686,57.95736545823748,194.4913760192457,11.9628574056626
"  2241 Alcathous (1979 WM)",57400,5.187103433461959,.06698354230908485,16.61939780086173,267.9822505864917,290.9308002601433,247.9785402635526,11.8139618601503
"  2260 Neoptolemus (1975 WM1)",57400,5.195193544149051,.04332633051161676,17.77930338703845,86.5736019234742,321.3186026627997,175.2667502013549,11.8416112555878
"  2357 Phereclos (1981 AC)",57400,5.208980130238736,.04413056580472934,2.668861602070093,179.251430758245,74.88956672419717,212.6590982170413,11.8887789844532
"  2363 Cebriones (1977 TJ3)",57400,5.198847499184527,.03536797653689893,32.13411096661834,211.7548686824465,56.54081988554906,211.0040759848941,11.854106359544
"  2456 Palamedes (1966 BA1)",57400,5.129736772348648,.07370587557429445,13.90749320164179,327.3933299437637,95.38584149330352,157.743232253154,11.6185203410843
"  2594 Acamas (1978 TB)",57400,5.065249896135915,.08390486538110516,5.533079890352514,356.7080965741822,279.4079066775407,172.5726131367676,11.4001224650178
"  2674 Pandarus (1982 BC3)",57400,5.181116110378304,.06769540208313381,1.854936392923928,179.8117137065476,39.21655797545462,244.8012679637383,11.7935129934619
"  2759 Idomeneus (1980 GC)",57400,5.181472356972492,.06659515538647862,21.95178097136212,171.2306752383464,8.497367406745372,51.01319936070202,11.7947293735722
"  2797 Teucer (1981 LK)",57400,5.102608508769222,.08822252562667007,22.3996191135639,69.93989447519247,49.11220413583359,105.3798169354813,11.5264766712313
"  2893 Peiroos (1975 QD)",57400,5.154374184580088,.07547028947923506,14.6561625693524,108.7667959655946,171.834178842134,166.4208691790342,11.7023239702895
"  2895 Memnon (1981 AE1)",57400,5.237180750848429,.05039162654398099,27.21788635218646,133.9784156235369,276.4797119105981,55.14317408844958,11.9854555809354
"  2920 Automedon (1981 JR)",57400,5.108057952902369,.02609936034453592,21.12409616299571,230.9510654991867,199.2443850035245,151.0923235562607,11.5449465356699
"  3063 Makhaon (1983 PV)",57400,5.205306291436176,.0595066953217239,12.16634672458755,287.8749354518035,205.4496474808313,101.689931447253,11.8762036565853
"  3240 Laocoon (1978 VG6)",57400,5.238647292752868,.1262244409697607,2.333621123480427,296.2777058214095,15.76577366081736,138.1812616847853,11.9904902754049
"  3317 Paris (1984 KF)",57400,5.223472705524829,.1261455347945352,27.86054413998083,135.8966211620334,150.2020522077112,179.1349939114743,11.938429436701
"  3391 Sinon (1977 DD3)",57400,5.302237159116292,.08238711730937803,14.86989700867155,341.1362107250585,103.5442568692526,135.4258282648344,12.2094731959282
"  3451 Mentor (1984 HA1)",57400,5.128587143154652,.07042506472599386,24.66156338913957,179.660494607895,133.0758386781935,166.8304390330636,11.6146148068302
"  3540 Protesilaos (1973 UF5)",57400,5.270868714355751,.1179822380971778,23.2969489138211,26.43821987371691,116.440992155121,89.44591349624298,12.101285323127
"  3548 Eurybates (1973 SO)",57400,5.18828402218376,.08922913704625093,8.063505469004221,43.56700159018776,28.1236674794106,170.2610092483116,11.8179953898144
"  3564 Talthybius (1985 TC1)",57400,5.207292130344626,.04090893885916958,15.50805896247296,23.78844998214812,203.3405257881557,345.1506949276293,11.8830005121029
"  3596 Meriones (1985 VO)",57400,5.16566454057215,.07335120645185172,23.53118083843351,356.6971218826914,67.1570850852024,172.5994309522093,11.7407949052425
"  3708 (1974 FV1)",57400,5.217488427968706,.1583327865001871,13.36946072517932,291.1745189535297,57.99349117110745,109.9443759345248,11.9179194005724
"  3709 Polypoites (1985 TL3)",57400,5.243570044248539,.06008462942283895,19.62301798135379,187.1470591179775,247.1317454506694,136.5303774747936,12.007395422435
"  3793 Leonteus (1985 TE3)",57400,5.21190217604074,.08990471797394707,20.90705854058401,200.5392523833615,263.1543640292944,128.304160653829,11.8987841372761
"  3794 Sthenelos (1985 TF3)",57400,5.206159168102158,.1454657404263778,6.061413357944045,343.2651630546356,35.44764242394142,207.1295564620494,11.8791226063938
"  3801 Thrasymedes (1985 VS)",57400,5.324470594891611,.02212244498889043,28.5005413264162,209.4810955343174,207.0347409394909,164.332851298345,12.2863491171568
"  4007 Euryalos (1973 SR)",57400,5.172819856083141,.05618128728579923,11.0042839353663,6.779672812396021,78.41547200012906,146.0185424994787,11.7651978188105
"  4035 (1986 WD)",57400,5.28487860474788,.05585066623269975,12.13235056039019,233.739629787056,198.2860598574609,147.5134262950892,12.1495649229826
"  4057 Demophon (1985 TQ)",57400,5.262261185871171,.1181946624290253,2.873019783306087,24.4415572002186,59.11808597944431,131.8483193685275,12.0716546416422
"  4060 Deipylos (1987 YT1)",57400,5.246653691120987,.1543202073583086,16.14803250780421,168.2499044325564,307.5035673176794,100.9871685612688,12.0179889713402
"  4063 Euforbo (1989 CG2)",57400,5.182276403366268,.1182580651515059,18.93943467597606,113.5156945976561,318.683018063542,157.4770995589506,11.7974748897677
"  4068 Menestheus (1973 SW)",57400,5.150090431385588,.07333025807817492,17.56041032307079,177.7004629239879,317.6616734584569,74.10960518311613,11.6877384603417
"  4086 Podalirius (1985 VK2)",57400,5.256158623901086,.1206767716573145,21.70892287361397,54.97855980792711,357.0760122958576,188.7624346291641,12.0506617673183
"  4138 Kalchas (1973 SM)",57400,5.162120331608551,.04291302299578483,2.099471166169399,208.0262163516981,164.7667420392046,215.5324906125471,11.728713780393
"  4348 Poulydamas (1988 RU)",57400,5.240645387446198,.09798334067971298,7.95760877425868,220.1156871341871,160.4358984749221,75.91561377284674,11.9973509451539
"  4489 (1988 AK)",57400,5.224202070526166,.05753727705232926,22.20694622093655,86.56360692266365,8.020760807312415,107.110064723262,11.9409300077904
